number,name,type,address,coordinates,district,chief,phone,fax,mode
1,"СПб ГБУЗ ""Городская Покровская больница""",Городские больницы (включая клинические),"199106, Санкт-Петербург, пр. Большой В.О., д. 85","59.9312,30.2536",Василеостровский,Бахолдина Марина Николаевна,322-25-98,322-00-78,
2,"СПБ ГБУЗ ""Городская многопрофильная больница №2""",Городские больницы (включая клинические),"194354, Санкт-Петербург, пер. Учебный,  д. 5","60.0372,30.3367",Выборгский,Волчков Владимир Анатольевич,338-48-84,296-40-67,
3,"СПб ГБУЗ ""Елизаветинская больница""",Городские больницы (включая клинические),"195257, Санкт-Петербург, ул. Вавиловых, д. 14","60.0248,30.3909",Калининский,Петров Сергей Викторович,555-15-05,555-57-73,
4,"СПб ГБУЗ ""Городская больница Св. Георгия""",Городские больницы (включая клинические),"194354, Санкт-Петербург, пр. Северный,  д. 1","60.0292,30.3274",Выборгский,Стрижелецкий Валерий Викторович,511-96-00,511-95-00,
5,"СПб ГБУЗ ""Городская больница №9""",Городские больницы (включая клинические),"197110, Санкт-Петербург, пр.Крестовский,  д.18","59.9687,30.2611",Петроградский,Васильев Сергей  Васильевич,409-20-26,235-05-77,
6,"СПб ГБУЗ ""Городская больница №14""",Городские больницы (включая клинические),"198099, Санкт-Петербург, ул. Косинова, д. 19/9","59.8953,30.2716",Кировский,Хохлова Ирина Михайловна,786-76-76,786-87-39,
7,"СПб ГБУЗ ""Городская больница №15""",Городские больницы (включая клинические),"198205, Санкт-Петербург, ул. Авангардная, д. 4","59.8395,30.1815",Красносельский,Новицкий Андрей Викторович,330-15-15,735-07-66,
8,"СПб ГБУЗ ""Городская Мариинская больница""",Городские больницы (включая клинические),"191104, Санкт-Петербург, пр. Литейный, д. 56","59.9351,30.3494",Центральный,Емельянов Олег Владиславович,275-74-33,275-73-26,
9,"СПб ГБУЗ ""Городская Александровская больница""",Городские больницы (включая клинические),"193312, Санкт-Петербург, пр. Солидарности, д. 4","59.928,30.4893",Невский,Линец Юрий Павлович,583-16-23,589-11-41,
10,"СПб ГБУЗ ""Городская больница №20""",Городские больницы (включая клинические),"196135, Санкт-Петербург, ул. Гастелло, д. 21","59.857,30.3345",Московский,Суровцева Татьяна Викторовна,373-30-31,373-70-10,
11,"СПБ ГБУЗ ""Клиническая ревматологическая больница №25""",прочие больницы,"190068, Санкт-Петербург, ул. Большая Подьяческая, 30","59.9211,30.3055",Адмиралтейский,Инамова Оксана Владимировна,338-00-43,310-44-52,
12,"СПб ГБУЗ ""Городская больница №26""",Городские больницы (включая клинические),"196247, Санкт-Петербург, ул. Костюшко, д. 2","59.8491,30.2955",Московский,Дорофеев Василий Иванович,415-18-72,415-19-02,
13,"СПб ГБУЗ ""Городская больница №28 ""Максимилиановская""",Городские больницы (включая клинические),"190000, Санкт-Петербург, ул. Декабристов, д. 1-3","59.9294,30.3077",Адмиралтейский,Савицкая Ирина Владимировна,314-51-92,314-81-93,
14,"СПб ГБУЗ ""Городская клиническая больница №31""",Городские больницы (включая клинические),"197110, Санкт-Петербург, пр. Динамо, д. 3","59.9722,30.2791",Петроградский,Рывкин Анатолий Юрьевич,235-49-66,235-21-11,
15,"СПБ ГБУЗ ""Введенская городская клиническая больница""",Городские больницы (включая клинические),"191180, Санкт-Петербург, пер. Лазаретный, д. 4","59.9216,30.3274",Адмиралтейский,Черепанова Екатерина Викторовна,764-77-83,764-77-83,
16,"СПб ГБУЗ ""Городская больница №33""",Городские больницы (включая клинические),"196653,Санкт-Петербург,  г.Колпино, ул. Павловская, д.16, лит. А","59.7472,30.5853",Колпинский,Грибанов Владимир Владимирович,242-38-02,242-36-20,
17,"СПб ГБУЗ ""Городская больница Святого Праведного Иоанна Кронштадтского""",Городские больницы (включая клинические),"197762, Санкт-Петербург,  г.Кронштадт, ул. Газовый завод,  д. 3, лит. А","59.988,29.7966",Кронштадтский,Новик Юрий Алексеевич,409-81-32,435-31-44,
18,"СПб ГБУЗ ""Николаевская больница""",Городские больницы (включая клинические),"198510, Санкт-Петербург, г. Петродворец, ул. Константиновская,  д. 1","59.8773,29.9176",Петродворцовый,Решетник Дмитрий Александрович,409-75-00,450-66-30,
19,"СПб ГБУЗ ""Городская больница №38 им. Н.А.Семашко""",Городские больницы (включая клинические),"196600, Санкт-Петербург, г.Пушкин, ул.Госпитальная,  д.7/2 литер А","59.7185,30.4178",Пушкинский,Марютин Петр Викторович,718-39-25,406-77-43,
20,"СПб ГБУЗ ""Городская больница №40 Курортного района""",Городские больницы (включая клинические),"197706,  Санкт-Петербург, г.Сестрорецк, ул. Борисова,  д. 9, лит.Б","60.1022,29.9699",Курортный,Щербак Сергей Григорьевич,437-10-35,437-14-92,
21,"СПБ ГБУЗ ""Госпиталь для ветеранов войн""",Госпитали для ИОВ,"193079, Санкт-Петербург, ул. Народная, д. 21, корп.2","59.8775,30.4687",Невский,Кабанов Максим Юрьевич,446-17-90,446-64-20,
22,"СПб ГБУЗ ""Клиническая больница Святителя Луки""",Городские больницы (включая клинические),"194044, Санкт-Петербург, ул. Чугунная, д.46 литер А","59.9722,30.3682",Калининский,Попов Сергей Валерьевич,576-11-01,576-11-55,
23,"СПб ГБУЗ ""Городской гериатрический медико-социальный центр""",Прочие больничные учреждения,"190103, Санкт-Петербург, наб. реки Фонтанки, д.148","59.9156,30.2872",Адмиралтейский,Серпов Владимир Юрьевич,251-51-33,251-51-33,
24,"СПб ГБУЗ ""Гериатрическая больница №1""",гериатрические больницы,"194214, Санкт-Петербург, ул. Ракитовская,  д. 29","60.0298,30.3077",Выборгский,Дейбук Алексей Григорьевич,293-45-49,293-45-49,
25,"СПб ГБУЗ ""Клиническая инфекционная больница им. С.П. Боткина""",инфекционные больницы для взрослых,"191167, Санкт-Петербург, ул. Миргородская, д. 3","59.9247,30.3734",Центральный,Гусев Денис Александрович,409-79-00,717-28-48,
26,"СПБ ГБУЗ ""Городская наркологическая больница""",Наркологические больницы,"199004, Санкт-Петербург, линия. 5-я В.О., д. 58-60, лит. А","59.9465,30.2776",Василеостровский,Константинов Дмитрий Павлович,323-43-08,323-43-08,
27,"СПб ГБУЗ ""Психиатрическая больница №1 им.П.П.Кащенко""",Психиатрические и психоневрологические больницы,"188357, Ленинградская обл., Гатчинский район, село Никольское, ул. Меньковская, д. 10","59.4517,30.005",Ленинградская область,Лиманкин Олег Васильевич,8-813-715-61-44,8-813-715-61-80,
28,"СПб ГКУЗ ""Психиатрическая больница Святого Николая Чудотворца""",Психиатрические и психоневрологические больницы,"190121, Санкт-Петербург, набережная реки Мойки, д. 126","59.9262,30.2776",Адмиралтейский,Свистун Сергей Яковлевич,714-14-44,714-74-29,
29,"СПб ГКУЗ ""Городская психиатрическая больница №3 им. И.И.Скворцова-Степанова""",Психиатрические и психоневрологические больницы,"197341, Санкт-Петербург, Фермское шоссе, д. 36","60.0213,30.3091",Приморский,Софронов Александр Генрихович,576-53-71,301-86-54,
30,"СПБ ГКУЗ ""Городская психиатрическая больница №6 (стационар с диспансером)""",Психиатрические и психоневрологические больницы,"191167, Санкт-Петербург, наб. Обводного канала, д. 9 лит.А, лит.И","59.9192,30.3875",Центральный,Кондакова Вероника Евгеньевна,246-27-00,274-26-32,
31,"СПБ ГБУЗ ""Городская психиатрическая больница №7 им.акад.И.П.Павлова""",Психиатрические и психоневрологические больницы,"199034, Санкт-Петербург, линия 15-я В.О., д. 4-6","59.9348,30.2742",Василеостровский,Палкин Юрий Рудиевич,323-36-72,323-36-72,
32,"СПБ ГБУЗ ""Городская туберкулезная больница №2""",туберкулезные больницы для взрослых,"194214, Санкт-Петербург, пр. Мориса Тореза, д. 93","60.0266,30.3241",Выборгский,Елькин Алексей Владимирович,554-18-81,554-16-91,
33,"СПб ГБУЗ ""Туберкулезная больница №8""",туберкулезные больницы для взрослых,"196620, Санкт-Петербург, г. Павловск, ул. Мичурина, д. 34","59.6772,30.4284",Пушкинский,Кузнецова Любовь Николаевна,241-30-40,241-30-50,
34,"СПб ГКУЗ ""Хоспис №1""",Хосписы,"197229, Санкт-Петербург, п.Лахта, Лахтинский пр.,  д. 98","59.9914,30.1451",Приморский,Сенчук Руслана Богдановна,576-19-55,576-19-55,
35,"СПб ГКУЗ ""Хоспис №2""",Хосписы,"196643, Санкт-Петербург, поселок Понтонный, ул. Заводская,  д. 36","59.7862,30.6291",Колпинский,Арзуманов Антон Арутюнович ,409-84-48,462-56-33,
36,"СПб ГКУЗ ""Хоспис №3""",Хосписы,"194362, Санкт-Петербург, п.Парголово, ул. Ломоносова д.76 лит.Б","60.0791,30.2816",Выборгский,Лебединец Александр Иванович,594-87-33,594-87-33,
37,"СПб ГКУЗ ""Хоспис №4""",Хосписы,"195427, Санкт-Петербург, пр. Светлановский, д. 85 литера А","60.0263,30.3876",Калининский,Москалев Эдуард Валерьевич,555-98-04,555-98-04,
38,"СПб ГАУЗ ""Хоспис (детский)""",Хосписы,"192131, Санкт-Петербург, ул.Бабушкина, д.56 корп.3 лит.А","59.8699,30.453",Невский,Кононова Елизавета Леонидовна,576-19-74,576-19-74,
39,"СПб ГБУЗ ""Детский городской многопрофильный клинический специализированный центр высоких медицинских технологий"" (бывш. ДГБ №1)",Детские городские больницы (кроме областных),"198205, Санкт-Петербург, ул. Авангардная, д. 14","59.8378,30.1854",Красносельский,Каган Анатолий Владимирович,735-16-91,735-99-98,
40,"СПб ГБУЗ ""Детская городская больница №2 святой Марии Магдалины""",Детские городские больницы (кроме областных),"199053, Санкт-Петербург, линия 1-я В.О., д. 58","59.9475,30.2832",Василеостровский,Микава Автандил Георгиевич,670-25-60,328-48-72,
41,"СПб ГБУЗ ""Детская городская больница Святой Ольги""",Детские городские больницы (кроме областных),"194156, Санкт-Петербург, ул. Земледельческая, д. 2","59.9893,30.3302",Выборгский,Начинкина Татьяна Алексанровна,295-50-00,295-50-00,
42,"СПб ГБУЗ ""Детская городская клиническая больница №5 им.Н.Ф. Филатова""",Детские городские больницы (кроме областных),"192289, Санкт-Петербург, ул. Бухарестская, д. 134","59.8383,30.4162",Фрунзенский,Исанкина Людмила Николаевна,400-04-12,400-04-11,
43,"СПб ГБУЗ ""Детская городская больница №17 Святителя Николая Чудотворца""",Детские городские больницы (кроме областных),"190121, Санкт-Петербург, ул.Декабристов, д.40, лит.А","59.9252,30.2914",Адмиралтейский,Левиз Владимир Валентинович,714-00-01,714-00-03,
44,"СПБ ГБУЗ ""Детский городской многопрофильный клинический центр ВМТ им. К.А. Раухфуса""",Детские городские больницы (кроме областных),"191036, Санкт-Петербург, пр. Лиговский, д. 8","59.9345,30.3639",Центральный,Детков Вячеслав Юрьевич,578-75-01,578-75-82,
45,"СПБ ГБУЗ ""Детская городская больница №22""",Детские городские больницы (кроме областных),"196657, г. Колпино, пр. Заводской,  д. 1","59.7393,30.557",Колпинский,Мельникова Галина Сергеевна,573-94-01,573-94-01,
46,"СПБ ГБУЗ ""Детская инфекционная больница №3""",инфекционные больницы для детей,"199026, Санкт-Петербург, пр. Большой В.О., д. 77/17","59.9334,30.2613",Василеостровский,Тюленева Галина Александровна,321-53-93,321-53-93,
47,"СПб ГКУЗ Центр восстановительного лечения ""Детская психиатрия"" имени С.С. Мнухина",Прочие больничные учреждения,"197022, Санкт-Петербург, ул. Чапыгина, д.13","60.1193,30.1798",Петроградский,Шигашов Дмитрий Юрьевич,234-23-33,234-47-11,
48,"СПб ГБУЗ ""Городской врачебно-физкультурный диспансер""",Врачебно - физкультурные диспансеры,"191028, Санкт-Петербург, наб. реки Фонтанки, д. 18","59.941,30.3407",Центральный,Матвеев Сергей Владимирович,579-61-24,273-08-28,
49,"СПБ ГБУЗ ""Межрайонный врачебно-физкультурный диспансер №1""",Врачебно - физкультурные диспансеры,"197022, Санкт-Петербург, пр. Каменноостровский, д. 48","59.9746,30.304",Петроградский,Григорьев Владимир Владимирович,234-07-50,234-07-50,
50,"СПБ ГБУЗ ""Врачебно-физкультурный диспансер №3 (межрайонный)""",Врачебно - физкультурные диспансеры,"198152, Санкт-Петербург, ул. Автовская, д. 18","59.8694,30.2699",Кировский,Легостаева Ксения Викторовна,573-98-50,784-85-38,
51,"СПб ГБУЗ ""Врачебно-физкультурный диспансер Красногвардейского района""",Врачебно - физкультурные диспансеры,"195112, Санкт-Петербург, пр. Новочеркасский, д. 15","59.9367,30.4057",Красногвардейский,Гаврилова Елена Анатольевна,528-88-70,528-88-70,
52,"СПБ ГБУЗ ""Городской кожно-венерологический диспансер""",Кожно - венерологические диспансеры,"192102, Санкт-Петербург, наб. реки Волковки, д. 3","59.9047,30.365",Фрунзенский,Кабушка Яна Станиславовна,766-23-10,766-23-10,
53,"СПБ ГБУЗ ""Кожно-венерологический диспансер №1""",Кожно - венерологические диспансеры,"199106, Санкт-Петербург, пр-кт Большой В.О. , д.85","59.9343,30.2359",Василеостровский,Погостин Сергей Евгеньевич,355-77-92,355-77-92,
54,"СПБ ГБУЗ ""Кожно-венерологический диспансер №2""",Кожно - венерологические диспансеры,"196084, Санкт-Петербург, Московский пр., д.95, кор.3","59.8948,30.3167",Московский,Кольчик Наталия Сергеевна,241-32-27,387-42-93,
55,"СПБ ГБУЗ ""Кожно-венерологический диспансер №3""",Кожно - венерологические диспансеры,"198020, Санкт-Петербург, пр. Рижский, д. 43, лит. А","59.9138,30.2722",Адмиралтейский,Абдурахманов-Павлов Владимир Леонидович,251-68-39,251-01-30,
56,"СПБ ГБУЗ ""Кожно-венерологический диспансер №4""",Кожно - венерологические диспансеры,"197227,Санкт-Петербург, пр. Сизова, д. 3","59.9839,30.2499",Приморский,Теличко Игорь Николаевич,432-74-02,432-74-02,
57,"СПБ ГБУЗ ""Кожно-венерологический диспансер №5""",Кожно - венерологические диспансеры,"197136, Санкт-Петербург, ул. Лахтинская, д. 32","59.964,30.2966",Петроградский,Науменко Марина Александровна,237-09-27,237-09-27,
58,"СПБ ГБУЗ ""Кожно-венерологический диспансер №6""",Кожно - венерологические диспансеры,"198264, Санкт-Петербург, ул. Летчика Пилютова, д. 41","59.8265,30.1393",Красносельский,Соколовская Анна Владимировна,744-27-83,744-27-83,
59,"СПБ ГБУЗ ""Кожно-венерологический диспансер №7""",Кожно - венерологические диспансеры,"198260, Санкт-Петербург, ул. Стойкости, д. 23","59.8277,30.2072",Кировский,Лобзев Николай Васильевич,750-15-66,750-15-66,
60,"СПБ ГБУЗ ""Кожно-венерологический диспансер №8""",Кожно - венерологические диспансеры,"195112, Санкт-Петербург, пр. Новочеркасский, д. 29/10","59.9341,30.4059",Красногвардейский,Касаткин Евгений Владимирович,528-63-48,528-63-48,
61,"СПб ГБУЗ ""Кожно-венерологический диспансер №9""",Кожно - венерологические диспансеры,"195256, Санкт-Петербург, ул. Софьи Ковалевской, д. 10, корп.1","60.0137,30.4091",Калининский,Стрельникова Ирина Александровна,535-78-73,535-78-73,
62,"СПб ГБУЗ ""Кожно-венерологический диспансер №10-Клиника дерматологии и венерологии""",Кожно - венерологические диспансеры,"194021, Санкт-Петербург, пр. Пархоменко, д. 29, лит А","59.9983,30.3478",Выборгский,Гутка Владимир Орестович,670-50-70 доб.302,550-21-60,
63,"СПБ ГБУЗ ""Кожно-венерологический диспансер №11""",Кожно - венерологические диспансеры,"191187, Санкт-Петербург, ул. Чайковского, д. 1","59.9462,30.3394",Центральный,Борухович Дмитрий Геннадьевич,273-62-07,273-62-07,
64,"СПБ ГБУЗ ""Кожно-венерологический диспансер Невского района""",Кожно - венерологические диспансеры,"192148, Санкт-Петербург, пр. Железнодорожный, 28, литер А","59.8819,30.423",Невский,Гнатюк Ирина Ивановна,560-77-03,560-77-03,
65,"СПб ГБУЗ ""Городской клинический онкологический диспансер""",Онкологические диспансеры,"197022, Санкт-Петербург, аллея 2-я Березовая, д. 3/5","59.9812,30.2941",Петроградский,Топузов Эльдар Эскендерович,756-99-00,376-06-25,
66,"СПб ГБУЗ ""Онкологический диспансер Московского района""",Онкологические диспансеры,"196247, Санкт-Петербург, пр. Новоизмайловский, д.77","59.8566,30.301",Московский,Харитонов Михаил Владимирович,241-29-39,374-12-16,
67,"СПБ ГБУЗ ""Городской противотуберкулезный диспансер""",Противотуберкулезные диспансеры,"196158, Санкт-Петербург, ул. Звездная, д. 12","59.8348,30.3543",Московский,Жемков Владимир Филиппович,726-92-80,726-72-76,
68,"СПБ ГБУЗ ""Противотуберкулезный диспансер №2""",Противотуберкулезные диспансеры,"196026, Санкт-Петербург, ул. Детская, д. 14","59.9286,30.2502",Василеостровский,Зайцев Андрей Викторович,322-29-02,322-29-02,
69,"СПБ ГБУЗ ""Межрайонный Петроградско-Приморский противотуберкулезный диспансер №3""",Противотуберкулезные диспансеры,"197343, Санкт-Петербург,ул. Студенческая, д.16, лит.А","59.9924,30.3274",Приморский,Козлов Вадим Валентинович,496-10-09,496-01-13,
70,"СПБ ГБУЗ ""Противотуберкулезный диспансер №5""",Противотуберкулезные диспансеры,"195067, Санкт-Петербург, ул. Бестужевская, д. 48","59.9589,30.4004",Калининский,Божков Игорь Александрович,409-84-56,225-07-34,
71,"СПБ ГБУЗ ""Противотуберкулезный диспансер №8""",Противотуберкулезные диспансеры,"191144, Санкт-Петербург, ул. 8-я Советская, д. 53","59.9337,30.3814",Центральный,Григорьева Галина Владимировна,271-46-20,271-46-20,
72,"СПБ ГБУЗ ""Противотуберкулезный диспансер №11""",Противотуберкулезные диспансеры,"194214, Санкт-Петербург, пр. Мориса Тореза, д.93 литер Б","60.0266,30.3241",Выборгский,Щедрина Светлана Валентиновна,553-16-60,554-44-37,
73,"СПБ ГБУЗ ""Противотуберкулезный диспансер №12""",Противотуберкулезные диспансеры,"190103, Санкт-Петербург, наб. реки Фонтанки, д.152-А","59.915,30.2841",Адмиралтейский,Сухин Василий Владимирович,251-73-71,251-73-71,
74,"СПБ ГБУЗ ""Противотуберкулезный диспансер №14""",Противотуберкулезные диспансеры,"192012, Санкт-Петербург, пр. Обуховской обороны, 231","59.8642,30.4711",Невский,Гуткин Михаил Григорьевич,362-33-18,362-33-18,
75,"СПБ ГБУЗ ""Противотуберкулезный диспансер №15""",Противотуберкулезные диспансеры,"198264, Санкт-Петербург, ул. Летчика Пилютова, д. 41","59.8265,30.1393",Красносельский,Молодых Зоя Александровна,744-26-65,744-26-65,
76,"СПБ ГБУЗ ""Противотуберкулезный диспансер №16""",Противотуберкулезные диспансеры,"198099, Санкт-Петербург, ул. Оборонная, д. 33","59.8939,30.2594",Кировский,Синицын Александр Валерьевич,786-20-10,786-20-10,
77,"СПБ ГБУЗ ""Противотуберкулезный диспансер №17""",Противотуберкулезные диспансеры,"191119, Санкт-Петербург, ул. Боровая, д. 1","59.9232,30.3487",Центральный,Новицкая Ирина Николаевна,764-86-74,764-77-66,
78,"СПБ ГБУЗ ""Противотуберкулезный диспансер №4""",Противотуберкулезные диспансеры,"196653, г.Колпино, пр. Ленина, д. 1/5 литер А","59.7492,30.5957",Колпинский,Бучкина Надежда Николаевна,461-72-18,461-72-18,
79,"СПБ ГБУЗ ""Пушкинский противотуберкулезный диспансер""",Противотуберкулезные диспансеры,"196602, г.Пушкин, ш. Павловское, д.14","59.7082,30.4178",Пушкинский,Гусев Александр Олегович,465-35-94,465-35-94,
80,"СПб ГБУЗ ""Психоневрологический диспансер №1""",Психоневрологические диспансеры,"199178, Санкт-Петербург, линия 12-я В.О., д. 39","59.9468,30.2641",Василеостровский,Дутов Владимир Борисович,328-81-25,328-81-25,
81,"СПб ГБУЗ ""Психоневрологический диспансер №2""",Психоневрологические диспансеры,"197341, Санкт-Петербург, Фермское шоссе, д. 34","60.0201,30.3096",Приморский,Караулов Олег Александрович,302-11-01,302-11-01,
82,"СПб ГБУЗ ""Психоневрологический диспансер №3""",Психоневрологические диспансеры,"197198, Санкт-Петербург, пер. Татарский, д. 16","59.9537,30.3023",Петроградский,Грицевская Тамара Михайловна,232-57-01,233-33-27,
83,"СПб ГКУЗ ""Психоневрологический диспансер №4""",Психоневрологические диспансеры,"197110, Санкт-Петербург, Пудожская ул., д.6","59.9647,30.292",Петроградский,Романовская Марина Владимировна,417-29-29,417-29-29,
84,"СПб ГБУЗ ""Психоневрологический диспансер №5""",Психоневрологические диспансеры,"195176, Санкт-Петербург, ш. Революции, д. 17","59.9593,30.4212",Красногвардейский,Серазетдинова Лариса Григорьевна,227-67-55,227-67-55,
85,"СПб ГБУЗ ""Психоневрологический диспансер №6""",Психоневрологические диспансеры,"196651, Санкт-Петербург, г. Колпино, пр. Ленина, д. 1/5","59.7492,30.5957",Колпинский,Орлова Светлана Львовна,461-45-91,461-05-35,
86,"СПб ГБУЗ ""Психоневрологический диспансер №8""",Психоневрологические диспансеры,"196211, Санкт-Петербург, пр. Юрия Гагарина, д. 18, корп. 3","59.8596,30.3406",Московский,Острецов Олег Валентинович,241-34-01,378-60-96,
87,"СПб ГБУЗ ""Психоневрологический диспансер №9 Невского района""",Психоневрологические диспансеры,"192131, Санкт-Петербург, ул. Ивановская, д.18","59.8733,30.4406",Невский,Демурчева Вероника Семеновна,560-35-48,560-37-81,
88,"СПб ГБУ ""Психоневрологический диспансер №10""",Психоневрологические диспансеры,"190121, Санкт-Петербург, пер. Матвеева, д. 3 литера Г","59.9264,30.2915",Адмиралтейский,Перстнев Сергей Владимирович,714-20-10,714-20-10,
89,"СПб ГБУЗ ""Психоневрологический диспансер Фрунзенского района""",Психоневрологические диспансеры,"190013, Санкт-Петербург, пер. Подъездной, д. 21","59.9149,30.3358",Адмиралтейский,Бреслав Борис Эмануилович,241-37-01,315-51-59,
90,"СПБ ГКУЗ ""Специализированный дом ребенка №3 (психоневрологический) Фрунзенского района""",Дома ребенка,"192289, Санкт-Петербург, бульвар Загребский, д. 42","59.8298,30.417",Фрунзенский,Пеньков Дмитрий Григорьевич,241-56-30,778-40-06,
91,"СПБ ГКУЗ ""Детский городской сурдологический центр""",Медицинские центры,"194356, Санкт-Петербург, ул. Есенина,  д. 26, корп. 4","60.0489,30.3398",Выборгский,Туфатулин Газиз Шарифович,599-21-90,517-15-10,
92,"СПб ГКУЗ ""Психоневрологический дом ребенка №6""",Дома ребенка,"199155, Санкт-Петербург, ул. Одоевского, д. 23","59.9518,30.2564",Василеостровский,Матвеева Екатерина Владимировна,350-04-09,350-16-67,
94,"СПб ГКУЗ ""Психоневрологический дом ребенка №8 Красногвардейского района""",Дома ребенка,"195176, Санкт-Петербург, ул. Синявинская, д. 18","59.9579,30.4188",Красногвардейский,Лохова Людмила Львовна,227-25-62,227-87-11,
95,"СПб ГКУЗ ""Психоневрологический дом ребенка №9""",Дома ребенка,"197183, Санкт-Петербург, пр. Приморский, д. 47","59.9836,30.279",Приморский,Лянко Любовь Михайловна,430-03-54,430-03-54,
96,"СПБ ГКУЗ ""Специализированный психоневрологический дом ребенка №13 Адмиралтейского района Санкт-Петербурга""",Дома ребенка,"190068, Санкт-Петербург, канал Грибоедова, д. 98","59.9265,30.3011",Адмиралтейский,Полянская Ирина Валерьевна,407-43-09,407-43-09,
97,"СПб ГБУЗ ""Женская консультация №5""",Женские консультации,"196143, Санкт-Петербург, ул. Орджоникидзе, д. 21","59.8432,30.3334",Московский,Логунова Татьяна Евгеньевна,573-95-90,573-95-90,
98,"СПб ГБУЗ ""Женская консультация №18""",Женские консультации,"190020, Санкт-Петербург, Нарвский пр., д.7, лит.А","59.9054,30.2738",Адмиралтейский,Светозарова Ирина Вячеславовна,252-31-83,714-34-79,
99,"СПб ГБУЗ ""Женская консультация №22""",Женские консультации,"194354, Санкт-Петербург, ул. Сикейроса,  д. 10, лит. В","60.0358,30.332",Выборгский,Кутуева Флора Рафхатовна,296-47-04,296-31-08,
100,"СПб ГБУЗ ""Женская консультация №33""",Женские консультации,"193079, Санкт-Петербург, ул. Народная, д. 17, корп. 2","59.8791,30.4644",Невский,Ким Ирина Валерьевна,446-14-59,446-14-59,
101,"СПб ГБУЗ ""Женская консультация №40""",Женские консультации,"197348, Санкт-Петербург, пр. Богатырский,  д. 7 корп. 5","60.0009,30.2852",Приморский,Чеботарева Ирина Алексеевна,395-17-17,395-42-71,
102,"СПб ГБУЗ ""Женская консультация №44"" Пушкинского района",Женские консультации,"196601, Санкт-Петербург, г. Пушкин, ул. Госпитальная,  д. 11, литер А","59.7187,30.419",Пушкинский,Миннуллин Руслан Ильдарович,476-63-82,476-63-82,
103,"ГБУ ""Санкт-Петербургский НИИ скорой помощи имени И.И. Джанелидзе""",Клиники HИИ,"192242, Санкт-Петербург, ул. Будапештская, д. 3/5","59.8743,30.3641",Фрунзенский,Парфенов Валерий Евгеньевич,705-09-97,774-86-75,
104,"СПб ГБУЗ ""Городская поликлиника №3""",Поликлиники,"199155, Санкт-Петербург, В.О. ул. Железноводская, д. 64","59.9499,30.2369",Василеостровский,Юшковский Владимир Олегович,417-36-68,350-64-95,
105,"СПб ГБУЗ ""Городская поликлиника №4""",Поликлиники,"199178, Санкт-Петербург, пр. Большой В.О., д. 59, лит. А","59.9359,30.2694",Василеостровский,Лотцан-Медведев Анатолий Казимирович,323-42-27,323-68-77,
106,"СПб ГБУЗ ""Городская поликлиника №6""",Поликлиники,"192148, Санкт-Петербург, пр. Елизарова, д. 32, корп. 2, лит.А","59.8928,30.4095",Невский,Бычков Роман Васильевич,365-37-69,576-03-20,
107,"СПб ГБУЗ ""Городская поликлиника №8""",Поликлиники,"193315, Санкт-Петербург, ул. Новоселов, д. 45","59.885,30.4716",Невский,Комарницкий Владимир Миронович,446-34-16,446-34-16,
108,"СПб ГБУЗ ""Городская поликлиника №14""",Поликлиники,"194021, Санкт-Петербург, пр. 2-й Муринский, д. 35","59.9999,30.3490",Выборгский,Панов Виктор Петрович,550-24-67,550-22-59,
109,"СПБ ГБУЗ ""Городская поликлиника №17""",Поликлиники,"195176, Санкт-Петербург, пр. Металлистов, д. 56, лит.А","59.9565,30.4201",Красногвардейский,Романов Андрей Владимирович,222-51-90,222-62-72,
110,"СПб ГБУЗ ""Городская поликлиника №19""",Поликлиники,"192238, Санкт-Петербург, ул. Пражская, д. 11","59.8768,30.3848",Фрунзенский,Карайланов Михаил Георгиевич,246-15-30,269-11-29,
111,"СПб ГБУЗ ""Городская поликлиника №21""",Поликлиники,"196247, Санкт-Петербург, ул. Костюшко, д. 6","59.8494,30.2993",Московский,Никитин Андрей Иванович,242-35-37,375-39-12,
112,"СПБ ГБУЗ ""Городская поликлиника №22""",Поликлиники,"196651, Санкт-Петербург, г.Колпино, Финляндская ул., д.13 корп.4 лит.БТ","59.7516,30.5949",Колпинский,Лубнина Наталия Евгеньевна,573-99-50,573-99-50,
113,"СПб ГБУЗ ""Городская поликлиника №23""",Поликлиники,"198099, Санкт-Петербург, ул. Косинова,  д. 17, лит.А","59.8962,30.2722",Кировский,Мельник Ольга Алексеевна,786-66-66,786-66-66,
114,"СПб ГБУЗ ""Городская поликлиника №24""",Поликлиники,"198013, Санкт-Петербург, ул. Серпуховская, д. 7","59.9162,30.3219",Адмиралтейский,Кнестяпин Руслан Вадимович,409-80-97,316-16-55,
115,"СПб ГБУЗ ""Городская поликлиника №25 Невского района""",Поликлиники,"193318, Санкт-Петербург, пр.Солидарности, д.1 корп.1, лит. А","59.9287,30.4855",Невский,Колбин Михаил Юрьевич,580-88-32,580-88-32,
116,"СПБ ГБУЗ ""Городская поликлиника №27""",Поликлиники,"190068, Санкт-Петербург, пр. Вознесенский, д. 29, лит.А","59.9256,30.3079",Адмиралтейский,Команенко Андрей Александрович,315-92-80,315-92-80,
117,"СПб ГБУЗ ""Городская поликлиника №28""",Поликлиники,"190013, Санкт-Петербург, пер. Подъездной, д. 2 литер А","59.9208,30.3302",Адмиралтейский,Давыдов Сергей Вячеславович,764-67-00,764-67-00,
118,"СПб ГБУЗ ""Городская поликлиника №30""",Поликлиники,"197110, Санкт-Петербург, ул. Малая Зеленина, д. 6","59.9631,30.2806",Петроградский,Гриненко Татьяна Романовна,235-10-77,235-10-77,
119,"СПб ГБУЗ ""Городская поликлиника №32""",Поликлиники,"197022, Санкт-Петербург, пер.Вяземский,  д.3","59.9718,30.3031",Петроградский,Ширшова Наталья Юрьевна,234-57-49,346-13-88,
120,"СПб ГБУЗ ""Городская поликлиника №34""",Поликлиники,"197198, Санкт-Петербург, ул.Зверинская,  д.15","59.9529,30.2975",Петроградский,Дементьев Владимир Евгеньевич,233-11-08,233-11-08,
121,"СПб ГБУЗ ""Городская поликлиника №37""",Поликлиники,"191186, Санкт-Петербург, ул.Гороховая, д.6, лит.А","59.9359,30.3115",Центральный,Ким Андрей Вячеславович,312-82-43,312-82-43,
122,"СПб ГБУЗ ""Городская поликлиника №38""",Поликлиники,"193015, Санкт-Петербург, ул. Кавалергардская, д. 26, лит.А","59.9462,30.3828",Центральный,Уваров Сергей Юрьевич,271-44-98,271-44-98,
123,"СПб ГБУЗ ""Городская поликлиника №39""",Поликлиники,"191123, Санкт-Петербург, ул. Фурштатская, д.36, лит.Б","59.9454,30.3582",Центральный,Иванова Ольга Павловна,272-84-17,272-99-38,
124,"СПб ГАУЗ ""Городская поликлиника №40""",Поликлиники,"191025, Санкт-Петербург, пр. Невский, д. 84-86","59.9326,30.3507",Центральный,Васильковский Вячеслав Георгиевич,244-38-68,244-38-69,
125,"СПб ГБУЗ ""Городская поликлиника №43""",Поликлиники,"198207, Санкт-Петербург, пр.Ленинский, д.123, корп.2","59.851,30.2621",Кировский,Родыгин Сергей Александрович,241-37-09,376-70-65,
126,"СПб ГБУЗ ""Городская поликлиника №44""",Поликлиники,"192071, Санкт-Петербург, ул. Будапештская, д.20","59.8662,30.373",Фрунзенский,Гопеенко Владимир Викторович,246-23-96,246-23-96,
127,"СПб ГБУЗ ""Городская поликлиника №46""",Поликлиники,"193174, Санкт-Петербург, ул. Седова, д.95, корп. 2, лит.А","59.8664,30.4413",Невский,Василевская Людмила Николаевна,362-03-68,362-03-68,
128,"СПб ГБУЗ ""Городская поликлиника №48""",Поликлиники,"196191, Санкт-Петербург, ул. Бассейная, д.19","59.8641,30.3079",Московский,Шипилова Валентина Александровна,417-59-89,375-63-00,
129,"СПб ГБУЗ ""Городская поликлиника №49""",Поликлиники,"197343, Санкт-Петербург, ул.Ланская,  д.12","59.9992,30.3202",Приморский,Наумова Фарида Хамитовна,241-33-47,241-33-47,
130,"СПб ГБУЗ ""Городская поликлиника №51""",Поликлиники,"196211, Санкт-Петербург, пр. Космонавтов, д.33-35","59.8565,30.3488",Московский,Никитина Оксана Григорьевна,241-28-60,241-28-60,
131,"СПб ГБУЗ ""Городская поликлиника №52""",Поликлиники,"194356, Санкт-Петербург, ул. Асафьева, д.1","60.0474,30.3201",Выборгский,Тимошина Марина Анатольевна,596-00-01,596-00-13,
132,"СПб ГБУЗ ""Городская поликлиника №54""",Поликлиники,"195197, Санкт-Петербург, ул. Васенко, д.9","59.969574,30.392575",Калининский,Савинцев Роман Витальевич,417-40-48,417-40-48,
133,"СПБ ГБУЗ ""Городская поликлиника №56""",Поликлиники,"192241, Санкт-Петербург, ул.Пражская, д.40","59.8687,30.3974",Фрунзенский,Балашов Алексей Львович,572-98-69,572-98-69,
134,"СПб ГБУЗ ""Городская поликлиника №60 Пушкинского района""",Поликлиники,"196601,  Санкт-Петербург, г. Пушкин, ул. Московская,  д. 15","59.7207,30.4024",Пушкинский,Емельянов Антон Олегович,476-40-45,476-52-79,
135,"СПб ГБУЗ ""Городская поликлиника №62""",Поликлиники,"190121, Санкт-Петербург, пер. Матвеева, д. 3","59.9265,30.2922",Адмиралтейский,Русакова Марина Михайловна,589-17-34,589-17-34,
136,"СПБ ГБУЗ ""Городская поликлиника №71""",Поликлиники,"196653, Санкт-Петербург, г. Колпино, ул.Павловская, д.10","59.7468,30.5882",Колпинский,Косый Сергей Николаевич,461-50-53,461-50-53,
137,"СПб ГБУЗ ""Городская поликлиника №72""",Поликлиники,"196641, Санкт-Петербург, п.Металлострой, ул.Пионерская,  д.1","59.8103,30.5725",Колпинский,Камчаткина Татьяна Александровна,241-54-60,241-54-60,
138,"СПб ГБУЗ ""Городская поликлиника №74""",Поликлиники,"197762, Санкт-Петербург,  г. Кронштадт, ул. Комсомола,  д. 2, литер А","59.9927,29.7888",Кронштадтский,Сергеев Михаил Николаевич,311-98-45,311-98-45,
139,"СПБ ГБУЗ ""Городская поликлиника №75""",Поликлиники,"196128, Санкт-Петербург, ул. Кузнецовская, д.9","59.8708,30.309",Московский,Коновал Алексей Иосифович,241-37-78,241-37-78,
140,"СПб ГБУЗ ""Городская поликлиника №76""",Поликлиники,"194021, Санкт-Петербург, ул. Хлопина, д.11, корп. 1","59.9997,30.3748",Калининский,Алешко Оксана Валерьевна,534-47-77,534-47-77,
141,"СПб ГБУЗ ""Городская поликлиника №77 Невского района""",Поликлиники,"192177, Санкт-Петербург, пр.Шлиссельбургский, д.25, корп.1","59.8373,30.5017",Невский,Габриелова Елена Ивановна,700-51-49,700-51-49,
142,"СПб ГБУЗ ""Городская поликлиника №78""",Поликлиники,"192239, Санкт-Петербург, ул.Будапештская, д.63 корп.2","59.85,30.383",Фрунзенский,Винтовкин Артем Сергеевич,361-17-00,361-17-00,
143,"СПб ГАУЗ ""Городская поликлиника №81""","Хозрасчетные поликлиники, амбулатории","190000, Санкт-Петербург, Казанская ул., д.54, литера А","59.9279,30.3079",Адмиралтейский,Иванов Константин Георгиевич,315-82-29,,
144,"СПб ГАУЗ ""Городская поликлиника №83""","Хозрасчетные поликлиники, амбулатории","197198, Санкт-Петербург, пр. Большой П.С., д. 10","59.9543,30.29",Петроградский,Кузьмин-Крутецкий Михаил Игоревич,233-67-69,235-82-89,
145,"СПб ГБУЗ ""Городская поликлиника №86""",Поликлиники,"195299, Санкт-Петербург, ул.Киришская, д.5, корп.3","60.0312,30.4229",Калининский,Дремов Роман Иванович,417-38-30,531-58-36,
146,"СПб ГБУЗ ""Городская поликлиника №87""",Поликлиники,"193232, Санкт-Петербург, ул.Дыбенко, д.21, корп.2","59.9019,30.474",Невский,Сочкова Любовь Викторовна,241-28-10,241-28-10,
147,"СПб ГБУЗ ""Городская поликлиника №88""",Поликлиники,"198261, Санкт-Петербург, ул.Генерала Симоняка,  д.6","59.8302,30.2053",Кировский,Понкратов Станислав Викторович,750-03-05,750-92-46,
148,"СПб ГБУЗ ""Городская поликлиника №91""",Поликлиники,"198329, Санкт-Петербург, ул.Отважных, д.8","59.8356,30.1703",Красносельский,Яковлева Наталья Владимировна,735-19-31,735-19-31,
149,"СПб ГБУЗ ""Городская поликлиника №93""",Поликлиники,"198320, Санкт-Петербург, г.Красное Село, ул. Освобождения, д. 15","59.7417,30.0888",Красносельский,Исакова Татьяна Ивановна,741-16-46,741-71-24,
150,"СПб ГБУЗ ""Городская поликлиника №94 Невского района""",Поликлиники,"193231, Санкт-Петербург, пр.Товарищеский, д.24","59.9135,30.4877",Невский,Агеев Михаил Николаевич ,246-26-72,246-26-72,
151,"СПб ГБУЗ ""Городская поликлиника №95""",Поликлиники,"196657, Санкт-Петербург, г.Колпино, ул.Машиностроителей,  д.10","59.7347,30.571",Колпинский,Исаева Татьяна Викторовна,481-45-22,481-45-22,
152,"СПб ГБУЗ ""Городская поликлиника №96""",Поликлиники,"195274, Санкт-Петербург, пр.Просвещения, д.53, корп.2, литер А","60.0426,30.3785",Калининский,Мясникова Наталья Николаевна,557-88-58,557-88-58,
153,"СПб ГБУЗ ""Городская поликлиника №97""",Поликлиники,"194291, Санкт-Петербург, ул.Кустодиева, д.6, к.1 литер А","60.0428,30.3567",Выборгский,Мастеров Илья Сергеевич,329-72-96,329-72-96,
154,"СПб ГБУЗ ""Городская поликлиника №98""",Поликлиники,"197227, Санкт-Петербург, Серебристый бул.,  д.14 корп. 1","60.0011,30.281",Приморский,Керимова Людмила Владимировна,417-60-07,417-60-07,
155,"СПб ГБУЗ ""Городская поликлиника №99""",Поликлиники,"194358, Санкт-Петербург, ул.Есенина,  д.38, корп.1","60.0558,30.3448",Выборгский,Лебединец Татьяна Николаевна,517-81-73,517-81-73,
156,"СПб ГКУЗ ""Амбулатория Мариинская""",Амбулатории,"190107, Санкт-Петербург, пл. Исаакиевская, д. 6","59.931,30.3094",Адмиралтейский,Бутко Дмитрий Юрьевич,570-37-15,570-37-15,
157,"СПб ГБУЗ ""Городская поликлиника №100 Невского района Санкт-Петербурга""",Поликлиники,"193318, Санкт-Петербург, пр.Искровский, д.10","59.9114,30.4621",Невский,Лаура Ольга Борисовна,588-77-71,588-77-71,
158,"СПб ГБУЗ ""Городская поликлиника №102""",Поликлиники,"197341, Санкт-Петербург, ул. Королева, д. 5","60.0104,30.2919",Приморский,Новикова Татьяна Николаевна,417-23-89,301-88-17,
159,"СПб ГБУЗ ""Городская поликлиника №104""",Поликлиники,"194354, Санкт-Петербург, ул.Сикейроса,  д.10, литер А","60.0356,30.331",Выборгский,Мансуров Ильдар Риялович,576-37-52,576-37-52,
160,"СПб ГБУЗ ""Городская поликлиника №106""",Поликлиники,"198328, Санкт-Петербург, ул.Рихарда Зорге, д.1","59.8502,30.1776",Красносельский,Кунин Вадим Григорьевич,246-02-00,246-02-00,
161,"СПб ГБУЗ ""Городская поликлиника №107""",Поликлиники,"195030, Санкт-Петербург, ул.Коммуны, д.36, литер А","59.951,30.4989",Красногвардейский,Архипов Игорь Викторович ,777-92-82,525-52-71,
162,"СПб ГБУЗ ""Городская поликлиника №109""",Поликлиники,"192283, Санкт-Петербург, ул.Олеко Дундича, д.8, корп.2","59.8293,30.3914",Фрунзенский,Мелихов Евгений Анатольевич,778-88-54,778-88-54,
163,"СПб ГБУЗ ""Городская поликлиника №111""",Поликлиники,"197349, Санкт-Петербург, ул.Ольховая,  д.6","60.015,30.2638",Приморский,Юплов Иван Валентинович,348-99-88,348-99-88,
164,"СПб ГБУЗ ""Городская поликлиника №112""",Поликлиники,"195427, Санкт-Петербург, ул.Академика Байкова, д.25, корп.1","60.0241,30.3864",Калининский,Власов Дмитрий Александрович,555-92-22,555-92-22,
165,"СПб ГБУЗ ""Городская поликлиника №114""",Поликлиники,"197374, Санкт-Петербург, ул.Школьная,, д.116, корп.1, литер А","59.9913,30.2116",Приморский,Анисимова Светлана Викторовна,344-27-93,344-27-93,
166,"СПб ГБУЗ ""Городская поликлиника №117""",Поликлиники,"194358, Санкт-Петербург, ул.Симонова, д.5, корп.1, литер А","60.057,30.3246",Выборгский,Сахарчук Валентин Иванович,497-73-25,497-73-25,
167,"СПб ГБУЗ ""Городская поликлиника №118""",Поликлиники,"195427, Санкт-Петербург, ул.Академика Байкова, д.27","60.0236,30.3878",Калининский,Щербакова Елена Геннадьевна,550-80-90,550-80-90,
168,"СПб ГБУЗ ""Городская поликлиника №120""",Поликлиники,"195426, Санкт-Петербург, ул.Ленская, д.4 к.1, литера А","59.9414,30.4822",Красногвардейский,Сафонов Сергей Михайлович,577-25-00,577-25-51,
169,"СПб ГБУЗ ""Городская поликлиника №122""",Поликлиники,"198412, Санкт-Петербург, г.Ломоносов, ул. Красноармейская,  д.20, 198510, Санкт-Петербург,  г.Петродворец, ул.Аврова,  д.19, литер А","59.9073,29.7787",Петродворцовый,Литвинова Елена Владимировна,423-09-08,423-09-08,
170,"СПб ГБУЗ ""Детская городская поликлиника №7""",Детские поликлиники,"194291, Санкт-Петербург, ул.Кустодиева, д.8, литер А","60.0433,30.3561",Выборгский,Матесович Елена Болеславовна,417-55-93,417-55-93,
171,"СПб ГБУЗ ""Детская городская поликлиника №8""",Детские поликлиники,"191123, Санкт-Петербург, ул. Чайковского, д. 73","59.9462,30.3642",Центральный,Блашенкова Надежда Юрьевна,272-31-28,272-31-28,
172,"СПб ГБУЗ ""Детская городская поликлиника №11""",Детские поликлиники,"194021, Санкт-Петербург, пр.Пархоменко, д.30","59.999,30.3487",Выборгский,Маханова Наталья Юрьевна,550-24-80,550-24-80,
173,"СПб ГБУЗ ""Детская городская поликлиника №17""",Детские поликлиники,"194358, Санкт-Петербург, ул.Есенина,  д.38 , корп.2","60.0559,30.344",Выборгский,Корнилова Эльмира Григорьевна,517-84-35,517-84-35,
174,"СПб ГБУЗ ""Детская городская поликлиника №19""",Детские поликлиники,"197046, Санкт-Петербург, ул.Куйбышева, д.25","59.9568,30.332",Петроградский,Фесенко Елена Владимировна,233-51-14,233-51-14,
175,"СПб ГБУЗ ""Детская городская поликлиника №29""",Детские поликлиники,"195274, Санкт-Петербург, ул. Демьяна Бедного, д.18, корп.3","60.0421,30.3815",Калининский,Силиди Илья Юрьевич,559-07-21,559-07-21,
176,"СПб ГБУЗ ""Детская поликлиника №30""",Детские поликлиники,"197341, Санкт-Петербург, пр. Королева,  д. 3, корп.2, литер А","60.0105,30.2928",Приморский,Громова Татьяна Самуиловна,300-51-18,394-72-65,
177,"СПб ГБУЗ ""Детская городская поликлиника №35""",Детские поликлиники,"196191, Санкт-Петербург, пр.Ленинский, д.168, корп.2","59.853,30.3101",Московский,Федорова Людмила Михайловна,241-33-22,241-33-22,
178,"СПБ ГБУЗ ""Детская городская поликлиника №44""",Детские поликлиники,"191144, Санкт-Петербург, ул.Мытнинская, д.25, литер А","59.9357,30.3807",Центральный,Семьюшкин Михаил Александрович,417-40-05,274-11-73,
179,"СПб ГБУЗ ""Детская городская поликлиника №45 Невского района""",Детские поликлиники,"193312, Санкт-Петербург, пр.Товарищеский, д.10, корп.3","59.9196,30.4861",Невский,Новикова Марина Михайловна,584-54-95,584-54-95,
180,"СПб ГБУЗ ""Детская городская поликлиника №49"" Пушкинского района",Детские поликлиники,"196600, Санкт-Петербург,  г.Пушкин, Софийский бульвар, д.28, литер А","59.7188,30.4226",Пушкинский,Гирич Оксана Петровна,670-00-49,,
181,"СПБ ГБУЗ ""Детская городская поликлиника №51""",Детские поликлиники,"196657, Санкт-Петербург, г.Колпино, ул.Металлургов,  д.11, литер А","59.7376,30.5658",Колпинский,Резчикова Галина Борисовна,573-92-16,573-92-16,
182,"СПБ ГБУЗ ""Детская городская поликлиника №62""",Детские поликлиники,"193318, Санкт-Петербург, пр.Искровский, д.8","59.9121,30.4615",Невский,Кряжева Светлана Валерьевна,589-17-34,589-17-34,
183,"СПБ ГБУЗ ""Детская городская поликлиника №63""",Детские поликлиники,"194358, Санкт-Петербург, ул.Симонова, д.3, литер А","60.0563,30.3245",Выборгский,Рубанова Олеся Михайловна,515-79-13,515-51-84,
184,"СПб ГБУЗ ""Детская городская поликлиника №68""",Детские поликлиники,"195426, Санкт-Петербург, пр.Наставников, д.20,  корп.1, литер А","59.9438,30.4902",Красногвардейский,Васильев Вячеслав Вячеславович,524-16-74,524-16-74,
185,"СПБ ГБУЗ ""Детская городская поликлиника №71""",Детские поликлиники,"194354, Санкт-Петербург, пр.Энгельса,  д.117, литер А","60.0414,30.328",Выборгский,Рыбакова Галия Камильевна,594-12-16,594-12-16,
186,"СПБ ГБУЗ ""Детская городская поликлиника №73""",Детские поликлиники,"192177, Санкт-Петербург, ул.Караваевская, д.30","59.8324,30.5112",Невский,Масленцева Лариса Юрьевна,246-03-83,246-03-83,
187,"СПБ ГБУЗ ""Консультативно-диагностическая поликлиника №1 Приморского района""",Медицинские диагностические центры,"197183, Санкт-Петербург, пр. Приморский, д. 3","59.9844,30.2979",Приморский,Королькова Екатерина Викторовна,492-35-40,430-66-33,
188,"СПБ ГБУЗ ""Городская стоматологическая поликлиника №2""",Cтоматологические поликлиники (для взрослых),"199004, Санкт-Петербург, линия 8-я В.О., д.41","59.9418,30.2779",Василеостровский,Пачкория Мака Гиглаевна,323-25-03,323-39-90,
189,"СПБ ГБУЗ ""Городская стоматологическая поликлиника №3""",Cтоматологические поликлиники (для взрослых),"199026, Санкт-Петербург, линия 21-я В.О., д.12","59.9349,30.2641",Василеостровский,Андреева Ольга Борисовна,321-99-10,327-98-34,
190,"СПб ГБУЗ ""Стоматологическая поликлиника №4""",Cтоматологические поликлиники (для взрослых),"194044, Санкт-Петербург, Беловодский пер., д. 1, лит. Л","59.9731,30.3391",Выборгский,Климов Андрей Геннадьевич,331-64-34,331-64-34,
191,"СПБ ГБУЗ ""Стоматологическая поликлиника №6""",Cтоматологические поликлиники (для взрослых),"197198, Санкт-Петербург, ул.Ижорская, д.5, лит.А","59.9588,30.2987",Петроградский,Кыткина Татьяна Дмитриевна,232-32-01,232-32-01,
192,"СПБ ГБУЗ ""Стоматологическая поликлиника №8""",Cтоматологические поликлиники (для взрослых),"195027, Санкт-Петербург, пр. Большеохтинский, д. 27","59.9542,30.4109",Красногвардейский,Старкова Софья Юрьевна,227-15-11,227-15-11,
193,"СПб ГБУЗ ""Стоматологическая поликлиника №9""",Cтоматологические поликлиники (для взрослых),"191028, Санкт-Петербург, ул.Чайковского, д.27 литер А","59.9463,30.3509",Центральный,Рубежов Александр Леонидович,273-02-88,273-14-31,
194,"СПб ГБУЗ ""Стоматологическая поликлиника №10""",Cтоматологические поликлиники (для взрослых),"198097, Санкт-Петербург, пер. Огородный, 4, корп 2","59.8874,30.2714",Кировский,Рунге Роберт Иоганович,786-58-06,252-66-01,
195,"СПб ГБУЗ ""Стоматологическая поликлиника №11""",Cтоматологические поликлиники (для взрослых),"198216, Санкт-Петербург, пр.Ленинский, д.138/5","59.8522,30.2782",Кировский,Черемисова Елена Викторовна,377-38-12,377-38-12,
196,"СПб ГБУЗ ""Стоматологическая поликлиника №12""",Cтоматологические поликлиники (для взрослых),"196084, Санкт-Петербург, пр. Московский, д. 122, литер В","59.8897,30.3202",Московский,Крылова Надежда Ивановна,388-09-26,388-32-41,
197,"СПб ГБУЗ ""Стоматологическая поликлиника №13""",Cтоматологические поликлиники (для взрослых),"192029, Санкт-Петербург, пр. Обуховской обороны, 123, литер А","59.8917,30.4394",Невский,Гудец Елена Юрьевна,412-54-56,412-54-56,
198,"СПБ ГБУЗ ""Стоматологическая поликлиника №15""",Cтоматологические поликлиники (для взрослых),"192238, Санкт-Петербург, ул. Пражская, д. 19, к. 1, лит. А","59.8724,30.3893",Фрунзенский,Ильин Филипп Юрьевич,764-68-01,764-68-01,
199,"СПб ГБУЗ ""Поликлиника стоматологическая №16""",Cтоматологические поликлиники (для взрослых),"190005, Санкт-Петербург, ул. 4-я Красноармейская, д.19, 190031, Санкт-Петербург, пер. Спасский, д.10","59.914,30.311",Адмиралтейский,Поленс Александр Анатольевич,316-26-08,316-11-14,
200,"СПб ГБУЗ ""Стоматологическая поликлиника №17""",Cтоматологические поликлиники (для взрослых),"197101, Санкт-Петербург, ул. Рентгена, д. 9","59.964,30.3222",Петроградский,Ерохина Надежда Ивановна,346-42-03,346-35-29,
201,"СПБ ГБУЗ ""Стоматологическая поликлиника №18""",Cтоматологические поликлиники (для взрослых),"196653, г.Колпино, ул.Веры Слуцкой, д.9, литер А","59.749,30.5834",Колпинский,Алескеров Джавад Шахинович,461-77-22,461-77-22,
202,"СПб ГБУЗ ""Стоматологическая поликлиника №19"" Пушкинского района",Cтоматологические поликлиники (для взрослых),"196607 г.Пушкин, ул Школьная, д.33","59.7836,30.1441",Пушкинский,Березкина Ирина Викторовна,417-33-99,417-33-99,
203,"СПб ГБУЗ ""Стоматологическая поликлиника №20""",Cтоматологические поликлиники (для взрослых),"198302, Санкт-Петербург, ул. Маршала Казакова, д.14, корп.3","59.8577,30.2372",Кировский,Голинский Юрий Георгиевич,758-42-55,758-42-55,
204,"СПб ГАУЗ ""Поликлиника городская стоматологическая №22""",Хозрасчетные стоматологические поликлиники,"191014, Санкт-Петербург, пер. Басков, д. 38","59.9393,30.3661",Центральный,Прожерина Неонила Георгиевна,327-33-10,273-70-13,
205,"СПб ГБУЗ ""Стоматологическая поликлиника №28 Красносельского района""",Cтоматологические поликлиники (для взрослых),"198206, Санкт-Петербург, ул.Пограничника Гарькавого, д.14, литер А","59.8412,30.148",Красносельский,Соловьев Владислав Викторович,744-59-13,744-59-13,
206,"СПБ ГБУЗ ""Стоматологическая поликлиника №29""",Cтоматологические поликлиники (для взрослых),"192284, Санкт-Петербург, ул. Будапештская, д. 69, корп.1, лит.А","59.8464,30.3873",Фрунзенский,Окунев Михаил Александрович,772-67-93,772-66-67,
207,"СПб ГБУЗ ""Стоматологическая поликлиника №30""",Cтоматологические поликлиники (для взрослых),"195273, Санкт-Петербург, пр. Науки, д. 46","60.0061,30.4295",Калининский,Хомякова Эрна Евгеньевна,409-76-12,409-76-12,
208,"СПб ГБУЗ ""Стоматологическая поликлиника №31 Невского района""",Cтоматологические поликлиники (для взрослых),"193312, Санкт-Петербург, пр.Солидарности, д.12, корп.1","59.9207,30.4928",Невский,Червонная Валерия Геннадьевна,588-90-70,588-90-70,
209,"СПБ ГБУЗ ""Стоматологическая поликлиника №32""",Cтоматологические поликлиники (для взрослых),"195426, Санкт-Петербург, пр. Наставников, д. 22, литер А","59.9445,30.4892",Красногвардейский,Новицкая Екатерина Васильевна,521-65-00,521-65-01,
210,"СПБ ГБУЗ ""Городская стоматологическая поликлиника №33""",Cтоматологические поликлиники (для взрослых),"197341, Санкт-Петербург, ул.Королева,  д.3, корп.1, литер А","60.0101,30.2936",Приморский,Розов Роман Александрович,301-80-59,301-80-59,
211,"СПБ ГБУЗ ""Детская городская стоматологическая поликлиника №1""",Детские стоматологические поликлиники,"199406, Санкт-Петербург, ул. Шевченко, д. 30, литер А","59.939,30.2407",Василеостровский,Беляева Светлана Анатольевна,355-79-79,355-79-26,
212,"СПб ГБУЗ ""Детская стоматологическая поликлиника №3""",Детские стоматологические поликлиники,"195271, Санкт-Петербург, ул. Брюсовская, д. 2, лит.А","59.9859,30.4244",Калининский,Прус Лариса Григорьевна,409-89-96,409-89-96,
213,"СПб ГБУЗ ""Детская стоматологическая поликлиника №4""",Детские стоматологические поликлиники,"198088, Санкт-Петербург, ул. Маршала Говорова,  д. 15","59.8794,30.2682",Кировский,Сухляева Юлия Владимировна,417-33-27,417-33-27,
214,"СПб ГБУЗ ""Городская детская стоматологическая поликлиника №6""",Детские стоматологические поликлиники,"198068, Санкт-Петербург, пр. Вознесенский, д.34 литер В","59.9256,30.3087",Адмиралтейский,Седнева Яна Юрьевна,310-06-84,310-08-85,
215,"СПб ГБУЗ ""Родильный дом №1 (специализированный)""",Родильные дома,"199178, Санкт-Петербург, пр. Большой В.О., д. 49/51","59.9369,30.2731",Василеостровский,Ильин Алексей Борисович,321-42-80,321-42-88,
216,"СПб ГБУЗ ""Родильный дом №6 им. проф. В.Ф. Снегирева""",Родильные дома,"191014, Санкт-Петербург, ул. Маяковского, д.  5","59.9348,30.3554",Центральный,Зайнулина Марина Сабировна,273-54-93,273-54-93,
217,"СПб ГБУЗ ""Родильный дом №9""",Родильные дома,"196158, Санкт-Петербург, ул. Орджоникидзе, д 47","59.8414,30.3527",Московский,Болотских Вячеслав Михайлович,726-44-55,726-44-55,
218,"СПб ГБУЗ ""Родильный дом №10""",Родильные дома,"198259, Санкт-Петербург, ул. Тамбасова, д. 21","59.831,30.1547",Красносельский,Иванова Лада Анатольевна,730-30-20,730-30-20,
219,"СПб ГБУЗ ""Родильный дом №13""",Родильные дома,"191124, Санкт-Петербург, ул.Костромская, д.4","59.9422,30.3896",Центральный,Фредерикс Елена Вадимовна,271-16-74,271-16-74,
220,"СПб ГБУЗ ""Родильный дом №16""",Родильные дома,"192283, Санкт-Петербург, ул. Малая Балканская, д. 54","59.8288,30.4193",Фрунзенский,Шапкайц Владимир Александрович,778-91-71,778-91-71,
221,"СПб ГБУЗ ""Родильный дом №17""",Родильные дома,"192174, Санкт-Петербург, ул. Леснозаводская, д. 4, корп.1","59.8684,30.4562",Невский,Михайлов Антон Валерьевич,777-48-77,777-48-77,
222,"СПб ГБУЗ ""Родильный дом №18""",Родильные дома,"193312, Санкт-Петербург, пр. Солидарности, д. 6","59.9255,30.4908",Невский,Гриненко Галина Викторовна,589-14-80,589-14-80,
223,"СПб ГКУЗ ""Детский туберкулезный санаторий ""Дружба""",Санаторно-курортные учреждения,"196607, Санкт-Петербург, г. Пушкин, ул. Леонтьевская,  д. 35","59.7253,30.4118",Пушкинский,Степанов Виктор Васильевич,241-25-56,241-25-56,
224,"СПб ГБУЗ Городской туберкулезный санаторий ""Сосновый Бор""",Санаторно-курортные учреждения,"188826, Ленинградская обл., п. Сосновый Бор, ул. Александра Невского, д. 16","60.3575,29.1103",Ленинградская область,Дзюба Евгений Григорьевич,8-813-78-62-530,8-813-78-62-586,
225,"СПб ГБУЗ Детский санаторий ""Аврора""",Санаторно-курортные учреждения,"197760, г.Кронштадт, Цитадельское шоссе, д.30","60.0035,29.7355",Кронштадтский,Ни Владимир Константинович,311-03-38,,
226,"СПб ГКУЗ Детский санаторий ""Березка""",Санаторно-курортные учреждения,"188333, Ленинградская обл., Гатчинский р-н, пос. Сиверский, пр. Пионерский,  д. 2","59.3611,30.1094",Ленинградская область,Николаев Евгений Тимофеевич,8-813-71-44-212,8-813-71-44-212,
227,"СПб ГКУЗ Детский туберкулезный санаторий ""Жемчужина""",Санаторно-курортные учреждения,"197920,  Санкт-Петербург, Зеленогорск, п. Ушково, ул.Пляжевая,  д. 10","60.2017,29.6073",Курортный,Борисова Татьяна Михайловна,433-44-16,433-44-16,
228,"СПб ГБУЗ Детский санаторий ""Звездочка""",Санаторно-курортные учреждения,"197720, Курортный район, п. Ушково, шоссе Приморское,  д. 605","60.1942,29.6353",Курортный,Малашкин Андрей Борисович,573-93-82,433-33-53,
229,"СПб ГКУЗ Детский туберкулезный санаторий ""Жемчужина""",Санаторно-курортные учреждения,"196601, Санкт-Петербург, г.Пушкин, шоссе Московское,  д. 9","59.7149,30.4230",Пушкинский,Власенко Галина Петровна,476-88-92,466-05-57,
230,"СПб ГБУЗ ""Детский санаторий ""Пионер"" (психоневрологический)",Санаторно-курортные учреждения,"197720, Курортный район, г.Зеленогорск, шоссе Приморское,  д. 595","60.1932,29.6531",Курортный,Косых Вячеслав Иннокентьевич,433-33-54,433-34-56,
231,"СПб ГБУЗ ""Детский психоневрологический санаторий ""Комарово""",Санаторно-курортные учреждения,"197733, Санкт-Петербург, п. Комарово, ул. Социалистическая,  д. 2/8 литер А","60.1806,29.8154",Курортный,Головко Татьяна Андреевна,241-22-32,241-22-32,
232,"СПб ГБУЗ Детский санаторий ""Салют"" (пульмонологический)",Санаторно-курортные учреждения,"188380, п. Вырица, ул. Лесная, д. 15","59.4145,30.3359",Ленинградская область,Умнов Роман Сергеевич,8-813-71-49-807,8-813-71-49-807,
233,"СПб ГБУЗ Детский санаторий ""Солнечное""",Санаторно-курортные учреждения,"197739, Санкт-Петербург, Курортный район, п. Солнечное, ул. 2-я Боровая,  д. 6","60.143,29.9428",Курортный,Лаврик Николай Петрович,432-92-13,432-94-03,
234,"СПб ГБУЗ Детский санаторий ""Спартак""",Санаторно-курортные учреждения,"188380, Ленинградская обл., п. Вырица, ул. Московская, д. 61, корп. 7","59.4162,30.3236",Ленинградская область,Завражных Софья Юрьевна,8-813-71-49580,,
235,"СПб ГКУЗ Детский туберкулезный санаторий ""Жемчужина""",Санаторно-курортные учреждения,"198504, Санкт-Петербург, г.Петродворец, пр. Собственный,  д. 9","59.8926,29.855",Петродворцовый,Патлатый Михаил Анатольевич,246-01-10,246-01-10,
236,"СПб ГБУЗ ""Городская станция скорой медицинской помощи""",Станции скорой медицинской помощи,"191023, Санкт-Петербург, ул. Малая Садовая, д. 1/25","59.9351,30.3375",Центральный,Бойков Алексей Александрович,246-60-58,571-06-12,
237,"СПБ ГБУЗ ""Станция скорой медицинской помощи №4""",Станции скорой медицинской помощи,"196601, Санкт-Петербург,  г.Пушкин, ул. Глинки,  д. 15","59.7145,30.4291",Пушкинский,Целиков Вячеслав Анатольевич,242-39-87,242-39-87,
238,"СПб ГБУЗ ""Станция скорой медицинской помощи""",Станции скорой медицинской помощи,"196653, Санкт-Петербург, г.Колпино, ул. Вавилова, д. 5, лит.А","59.7457,30.588",Колпинский,Афанасьев Герман Иванович,242-32-38,,
239,"СПб ГБУЗ ""Станция скорой медицинской помощи Петродворцового района Санкт-Петербурга""",Станции скорой медицинской помощи,"198516, Санкт-Петербург, г.Петродворец, ул.Морского десанта,  д. 12 литер А","59.8867,29.8925",Петродворцовый,Демчук Олег Васильевич,242-35-34,242-35-34,
240,"СПБ ГКУЗ ""Городская станция переливания крови""",Учреждения здравоохранения особого типа,"196084, Санкт-Петербург, Московский пр., д.104","59.8955,30.3198",Центральный,Засухина Татьяна Николаевна,388-12-55,388-12-55,
241,"СПБ ГКУЗ ""Городской центр медицинской профилактики""",Учреждения здравоохранения особого типа,"191023, Санкт-Петербург, ул.Малая Садовая, д.1/ 25, литера А","59.9351,30.3375",Центральный,Ченцов Дмитрий Викторович,595-89-09,571-70-33,
242,"ГБУЗ ""Санкт-Петербургский клинический научно-практический центр специализированных видов медицинской помощи (онкологический)""",Прочие больничные учреждения,"197758, Санкт-Петербург, п.Песочный, ул. Ленинградская, д.68а, лит.А","60.1203,30.1873",Курортный,Моисеенко Владимир Михайлович,573-91-91,573-91-91,
243,"СПб ГБУЗ ""Центр СПИД и инфекционных заболеваний""",Прочие больничные учреждения,"198103, Санкт-Петербург, наб. Обводного канала, д. 179","59.9095,30.2949",Адмиралтейский,Виноградова Татьяна Николаевна ,251-08-53,,
244,"СПб ГБУЗ ""Детский санаторий-Реабилитационный центр ""Детские Дюны""",Санаторно-курортные учреждения,"197701, Санкт-Петербург, г.Сестрорецк, 37-й км Приморского шоссе, дом 1","60.1194,29.9520",Курортный,Морозова Олеся Леонидовна,246-22-88,246-22-88,
245,"СПб ГБУЗ ""Восстановительный центр детской ортопедии и травматологии ""Огонек""",Санаторно-курортные учреждения,"198515, Санкт-Петербург, п.Стрельна, Санкт-Петербургское шоссе,  д.101а","59.8566,30.0158",Петродворцовый,Фалинский Александр Александрович  ,421-11-45,421-11-45,
246,"СПб ГКУЗ ""Городской центр восстановительного лечения детей с психоневрологическими нарушениями""",Прочие амбулаторные учреждения,"196135, Санкт-Петербург, ул. Фрунзе, д. 10","59.862,30.3232",Московский,Джангавадзе Нугзар Давидович,388-24-87,388-24-87,
247,"СПБ ГБУЗ ""Городской консультативно-диагностический центр №1""",Медицинские диагностические центры,"194354, Санкт-Петербург, ул. Сикейроса,  д. 10 литер А","60.0356,30.331",Выборгский,Попов Евгений Александрович,296-38-00,296-38-00,
248,"СПБ ГБУЗ ""Диагностический Центр №7 (глазной) для взрослого и детского населения""",Медицинские диагностические центры,"191028, Санкт-Петербург, ул.Моховая, д.38","59.9399,30.3454",Центральный,Соколов Виталий Олегович,272-33-03,273-25-29,
249,"СПб ГКУЗ ""Диагностический центр (медико-генетический)""",Консультативно - диагностические центры для детей,"194044, Санкт-Петербург, ул.Тобольская, д.5","59.9726,30.3438",Выборгский,Карпов Константин Павлович,241-24-85,241-24-85,
250,"СПБ ГБУЗ ""Консультативно-диагностический центр для детей""",Консультативно - диагностические центры для детей,"192289, Санкт-Петербург, ул. О. Дундича, д.36, корп.2","59.8352,30.4246",Фрунзенский,Ивашикина Татьяна Михайловна,778-72-40,778-29-43,
251,"СПБ ГБУЗ ""Центр планирования семьи и репродукции""",Прочие больничные учреждения,"195009, Санкт-Петербург, ул. Комсомола, д. 4","59.9551,30.3687",Калининский,Балдин Александр Владимирович,542-99-70,542-99-67,
252,"СПб ГБУЗ ""Городской консультативно-диагностический центр для детей ""Ювента"" (репродуктивное здоровье)""",Консультативно - диагностические центры для детей,"190020, Санкт-Петербург, пр. Старо-Петергофский, д. 12","59.9102,30.2768",Адмиралтейский,Ипполитова Марина Федоровна,251-22-67,251-22-67,
253,"СПБ ГБПОУ ""Медицинский техникум №2""",Учреждение среднего профессионального образования,"192102, Санкт-Петербург, Волковский пр., 106","59.8893,30.3559",Фрунзенский,Баженова Ольга Петровна,766-05-40,766-05-40,
254,"СПб ГБПОУ ""Медицинский техникум №9""",Учреждение среднего профессионального образования,"197183, Санкт-Петербург, ул. Савушкина, д. 5","59.9877,30.2981",Приморский,Спиридонова Любовь Николаевна,430-87-10,430-87-10,
255,"СПб ГБУЗ ""Санкт-Петербургская городская дезинфекционная станция""",Дезинфекционная станция,"195009, Санкт-Петербург, Финский пер.д.4б, лит. А","59.9568,30.3536",Калининский,Ватолина Наталья Анатольевна,246-21-21,246-21-21,
256,"СПБ ГБУ ДПО ""Центр последипломного образования специалистов медицинского профиля """,Учреждение среднего профессионального образования,"191028, Санкт-Петербург, ул. Кирочная, д. 16","59.9441,30.3550",Центральный,Регентова Елена Сергеевна,272-17-37,273-32-18,
257,"СПБ ГБПОУ ""Медицинский колледж №1""",Учреждение среднего профессионального образования,"198188, Санкт-Петербург, ул. Зайцева, д. 28, лит. А","59.8794,30.2722",Кировский,Бубликова Ирина Владимировна,786-01-44,786-01-44,
258,"СПБ ГБПОУ ""Медицинский колледж №2""",Учреждение среднего профессионального образования,"198205, Санкт-Петербург, ул. Чекистов, д. 18","59.8420,30.1784",Красносельский,Ряскин Александр Николаевич,409-70-13,409-70-13,
259,"СПБ ГБПОУ ""Медицинский колледж №3""",Учреждение среднего профессионального образования,"194354, Санкт-Петербург, пер. Учебный,  д. 9","60.0369,30.3416",Выборгский,Федотова Наталия Витальевна,510-67-44,510-67-44,
260,"СПб ГБПОУ ""Акушерский колледж""",Учреждение среднего профессионального образования,"195269, Санкт-Петербург, ул. Учительская, д. 9, корп. 3","60.0333,30.39",Калининский,Батраков Дмитрий Юрьевич,246-22-50,246-22-50,
261,"СПб ГБПОУ ""Медицинский колледж им. В.М. Бехтерева""",Учреждение среднего профессионального образования,"196247, Санкт-Петербург, пр. Ленинский, д. 149","59.8509,30.2991",Московский,"Курбатова Ульяна Борисовна""  ",246-24-43,246-24-43,
262,"СПБ ГБПОУ ""Фельдшерский колледж""",Учреждение среднего профессионального образования,"195267, Санкт-Петербург, ул. Ушинского, д. 45","60.0438,30.4179",Калининский,Котова Галина Николаевна,531-16-22,,
263,"СПБ ГБУЗ ""Бюро судебно-медицинской экспертизы""",Учреждения здравоохранения особого типа,"195067, Санкт-Петербург, пр. Екатерининский, д. 10","59.9844,30.4382",Красногвардейский,Фёдоров Сергей Александрович,544-17-17,545-03-40,
264,"СПБ ГБУЗ ""Городское патологоанатомическое бюро""",Учреждения здравоохранения особого типа,"194354, Санкт-Петербург, пер. Учебный,  д. 5","60.0372,30.3367",Выборгский,Майская Марина Юрьевна,338-60-98,513-60-98,
265,"СПБ ГБУЗ ""Медицинский информационно-аналитический центр""",Учреждения здравоохранения особого типа,"198095, Санкт-Петербург, ул. Шкапина, д. 30, литера А","59.9055,30.2928",Адмиралтейский,Язенок Аркадий Витальевич,576-22-22,576-22-23,
266,"СПБ ГКУЗ особого типа Медицинский центр мобилизационных резервов ""Резерв""","Центр ""Резерв""","191014, Санкт-Петербург, ул. Маяковского, д. 5 лит.А","59.9348,30.3554",Центральный,Герасимов Александр Александрович,579-15-13,,
267,"СПб ГБУЗ ""Северо-Западный центр по контролю качества лекарственных средств""",Прочее,"198216 Санкт-Петербург, Ленинский пр., д.140","59.8524,30.2849",Кировский,Смирнова Ирина Геннадьевна,376-97-89,376-97-89,
268,"СПБ ГБУЗ ""Детский центр восстановительной медицины и реабилитации №3""",Прочие амбулаторные учреждения,"195269, Санкт-Петербург, ул. Брянцева, д. 5, корп. 2, лит. А","60.0339,30.4045",Калининский,Лохова Любовь Алиевна,596-49-27,290-00-71,
269,"СПб ГБУЗ ""Консультативно-диагностический центр №85""",Медицинские диагностические центры,"198260, Санкт-Петербург, пр.Ветеранов, д.89, корп.3, литер А","59.8371,30.2136",Кировский,Рулёв Сергей Николаевич,755-30-39,368-92-73,
